ONEWEB-0564             
1 55801U 23029F   25223.28937990  .00000084  00000+0  17572-3 0  9992
2 55801  87.9290 336.2281 0002154 108.8527 251.2840 13.20772825120242
ONEWEB-0638             
1 55802U 23029G   25223.28921798 -.00000003  00000+0 -42435-4 0  9992
2 55802  87.9085 351.4399 0002371 100.6688 259.4709 13.14503653118686
ONEWEB-0639             
1 55803U 23029H   25223.09285823 -.00000067  00000+0 -19863-3 0  9992
2 55803  87.9251   6.6296 0002128  62.9848 297.1502 13.19724920118008
ONEWEB-0640             
1 55804U 23029J   25222.84201232 -.00000150  00000+0 -43866-3 0  9990
2 55804  87.9083 351.5154 0002549  91.6217 268.5205 13.14500872119324
ONEWEB-0641             
1 55805U 23029K   25223.16393879 -.00000075  00000+0 -21991-3 0  9997
2 55805  87.9253   6.5870 0001844  88.7976 271.3368 13.19725224118025
ONEWEB-0642             
1 55806U 23029L   25223.46246988  .00000063  00000+0  12605-3 0  9996
2 55806  87.9245   6.5643 0001731  65.7585 294.3728 13.19726538118744
ONEWEB-0643             
1 55807U 23029M   25223.11635975  .00000225  00000+0  57153-3 0  9994
2 55807  87.9084 351.4439 0001407  76.5558 283.5728 13.14501634118654
ONEWEB-0644             
1 55808U 23029N   25222.92700900 -.00000054  00000+0 -16741-3 0  9994
2 55808  87.9251   6.6769 0001743  79.4831 280.6498 13.19726365117987
